{
    "links": {
        "self": "http://www.neowsapp.com/rest/v1/neo/3879297?api_key=iIulBulltgU6a56xZRHN4H3l9WmuAYTsLGpBGhQ2"
    },
    "id": "3879297",
    "neo_reference_id": "3879297",
    "name": "(2019 US2)",
    "designation": "2019 US2",
    "nasa_jpl_url": "http://ssd.jpl.nasa.gov/sbdb.cgi?sstr=3879297",
    "absolute_magnitude_h": 23.4,
    "estimated_diameter": {
        "kilometers": {
            "estimated_diameter_min": 0.0555334912,
            "estimated_diameter_max": 0.1241766613
        },
        "meters": {
            "estimated_diameter_min": 55.5334911581,
            "estimated_diameter_max": 124.1766612574
        },
        "miles": {
            "estimated_diameter_min": 0.0345069009,
            "estimated_diameter_max": 0.0771597762
        },
        "feet": {
            "estimated_diameter_min": 182.1964991311,
            "estimated_diameter_max": 407.4037573197
        }
    },
    "is_potentially_hazardous_asteroid": false,
    "close_approach_data": [
        {
            "close_approach_date": "2019-04-13",
            "close_approach_date_full": "2019-Apr-13 13:53",
            "epoch_date_close_approach": 1555163580000,
            "relative_velocity": {
                "kilometers_per_second": "14.297645945",
                "kilometers_per_hour": "51471.5254020961",
                "miles_per_hour": "31982.4042144302"
            },
            "miss_distance": {
                "astronomical": "0.1990146817",
                "lunar": "77.4167111813",
                "kilometers": "29772172.481047979",
                "miles": "18499570.1432569502"
            },
            "orbiting_body": "Earth"
        },
        {
            "close_approach_date": "2019-10-06",
            "close_approach_date_full": "2019-Oct-06 06:02",
            "epoch_date_close_approach": 1570341720000,
            "relative_velocity": {
                "kilometers_per_second": "15.4614034849",
                "kilometers_per_hour": "55661.0525455802",
                "miles_per_hour": "34585.6134553357"
            },
            "miss_distance": {
                "astronomical": "0.1490573357",
                "lunar": "57.9833035873",
                "kilometers": "22298659.928594959",
                "miles": "13855744.7802060742"
            },
            "orbiting_body": "Earth"
        },
        {
            "close_approach_date": "2023-04-09",
            "close_approach_date_full": "2023-Apr-09 15:38",
            "epoch_date_close_approach": 1681054680000,
            "relative_velocity": {
                "kilometers_per_second": "20.9210273443",
                "kilometers_per_hour": "75315.6984393871",
                "miles_per_hour": "46798.246066407"
            },
            "miss_distance": {
                "astronomical": "0.385953982",
                "lunar": "150.136098998",
                "kilometers": "57737893.62521834",
                "miles": "35876663.475719492"
            },
            "orbiting_body": "Earth"
        }
    ],
    "orbital_data": {
        "orbit_id": "2",
        "orbit_determination_date": "2019-10-31 07:11:21",
        "first_observation_date": "2019-10-20",
        "last_observation_date": "2019-10-28",
        "data_arc_in_days": 8,
        "observations_used": 27,
        "orbit_uncertainty": "8",
        "minimum_orbit_intersection": ".134004",
        "jupiter_tisserand_invariant": "5.189",
        "epoch_osculation": "2458777.5",
        "eccentricity": ".1838944244802754",
        "semi_major_axis": "1.193607407654483",
        "inclination": "28.26850477819129",
        "ascending_node_longitude": "18.54935675521704",
        "orbital_period": "476.3110808307852",
        "perihelion_distance": ".9741096603684684",
        "perihelion_argument": "268.4372987130481",
        "aphelion_distance": "1.413105154940498",
        "perihelion_time": "2458679.448101221239",
        "mean_anomaly": "74.1084660444719",
        "mean_motion": ".7558085765548125",
        "equinox": "J2000",
        "orbit_class": {
            "orbit_class_type": "APO",
            "orbit_class_description": "Near-Earth asteroid orbits which cross the Earth’s orbit similar to that of 1862 Apollo",
            "orbit_class_range": "a (semi-major axis) > 1.0 AU; q (perihelion) < 1.017 AU"
        }
    },
    "is_sentry_object": false
}